name,country,state,lat,lon,elev,begin_station,end_station
IGARAPE-ACU NORTH,BR,,-1.067,-47.617,+0057.0,19450514,19450920
BOCAIUVA SOUTHEAST,BR,,-17.2,-43.667,+0828.0,19470406,19470523
OIAPOQUE,BR,,3.814,-51.863,+0020.5,20160704,20190701
BOA VISTA,BR,,2.805,-60.647,+0095.5,20160704,20210120
TARTARUGALZINHO,BR,,1.497,-50.917,+0022.5,20161021,20180405
PORTO GRANDE,BR,,0.7,-51.433,+0078.5,20210817,20210817
BARCELOS,BR,,-0.983,-62.917,+0018.5,20161104,20200107
SOURE,BR,,-0.817,-48.517,+0012.5,20160704,20200219
SALINOPOLIS,BR,,-0.617,-47.35,+0022.5,20160704,20200608
BRAGANCA,BR,,-1.05,-46.783,+0034.5,20160704,20210116
TURIACU,BR,,-1.667,-45.367,+0042.5,20160704,20200324
PRESIDENTE FIGUEIREDO,BR,,-2.056,-60.026,+0093.5,20160704,20201203
URUCARA,BR,,-2.533,-57.75,+0018.5,20160704,20200131
PARINTINS,BR,,-2.639,-56.756,+0036.5,20160704,20200325
CAMETA,BR,,-2.25,-49.5,+0023.5,20160704,20191204
SANTANA,BR,,-2.267,-43.617,+0009.5,20160704,20190506
PREGUICAS,BR,,-2.593,-42.707,+0001.6,20140410,20200320
AUTAZES,BR,,-3.583,-59.129,+0029.5,20160704,20210424
MAUES,BR,,-3.4,-57.667,+0036.5,20160704,20200325
PLACAS,BR,,-3.867,-54.217,+0097.5,20160704,20200308
MEDICILANDIA,BR,,-3.517,-52.967,+0252.5,20160704,20210117
PACAJA,BR,,-3.85,-50.633,+0109.5,20160704,20191204
TUCURUI,BR,,-3.817,-49.683,+0149.5,20160712,20210511
PARAGOMINAS,BR,,-3.017,-47.35,+0102.5,20160704,20201022
CHAPADINHA,BR,,-3.75,-43.35,+0092.5,20160704,20200409
ESPERANTINA,BR,,-3.9,-42.267,+0066.5,20160704,20181120
SOBRAL,BR,,-3.75,-40.35,+0065.5,20160704,20210225
ACARAU,BR,,-3.117,-40.083,+0077.5,20160704,20200220
ITAPIPOCA,BR,,-3.483,-39.583,+0103.5,20160704,20191213
COARI,BR,,-4.1,-63.15,+0044.5,20160704,20200113
ITAITUBA,BR,,-4.283,-56.0,+0014.5,20160704,20200915
RONDON DO PARA,BR,,-4.783,-48.067,+0222.5,20160704,20210317
BURITICUPU,BR,,-4.317,-46.45,+0176.5,20160704,20200425
CAXIAS,BR,,-4.817,-43.35,+0077.5,20160705,20200222
GUARAMIRANGA,BR,,-4.267,-38.933,+0871.5,20160704,20210218
MARABA,BR,,-5.167,-49.383,+0117.5,20160704,20210621
ARAGUATINS,BR,,-5.65,-48.117,+0118.5,20160704,20210126
GRAJAU,BR,,-5.817,-46.167,+0231.5,20160704,20210206
SAO PEDRO DO PIAUI,BR,,-5.917,-42.717,+0288.5,20160704,20191020
CASTELO DO PIAUI,BR,,-5.35,-41.517,+0287.5,20160704,20191109
JAGUARIBE,BR,,-5.905,-38.628,+0185.5,20160704,20200727
MOSSORO,BR,,-5.083,-37.367,+0037.5,20160730,20200402
APODI,BR,,-5.117,-36.717,+0005.5,20160704,20201202
CALCANHAR,BR,,-5.167,-35.483,+0018.5,20160704,20190113
ALVORADA DO GURGUEIA,BR,,-8.45,-43.867,+0271.5,20160704,20210817
SAO JOAO DO PIAUI,BR,,-8.365,-42.251,+0236.5,20110926,20200522
SERRA DE CARAJAS,BR,,-6.083,-50.15,+0720.5,20160704,20191115
ESTREITO,BR,,-6.65,-47.417,+0181.5,20160704,20210514
COLINAS,BR,,-6.033,-44.233,+0180.5,20160704,20210115
OEIRAS,BR,,-6.967,-42.15,+0157.5,20160704,20201215
VALENCA DO PIAUI,BR,,-6.4,-41.733,+0302.5,20160704,20201215
TAUA,BR,,-6.017,-40.283,+0416.5,20160704,20200823
SANTA CRUZ,BR,,-6.233,-36.033,+0238.5,20160704,20191204
CAMARATUBA,BR,,-6.617,-35.133,+0137.5,20160704,20191117
HUMAITA,BR,,-7.55,-63.067,+0073.5,20160916,20201227
APUI,BR,,-7.2,-59.883,+0169.5,20160704,20201123
ARAGUAINA,BR,,-7.267,-48.2,+0227.5,20160704,20210317
BALSAS,BR,,-7.45,-46.033,+0225.5,20160704,20200523
URUCUI,BR,,-7.467,-44.35,+0394.5,20160704,20210223
CAMPOS SALES,BR,,-7.083,-40.367,+0573.5,20140410,20200316
CABACEIRAS,BR,,-7.483,-36.283,+0437.5,20160704,20210205
PORTO WALTER,BR,,-8.267,-72.75,+0205.5,20160704,20201112
MARECHAL THAUMATURGO,BR,,-8.95,-72.787,+0231.5,20160705,20191204
BOCA DO ACRE,BR,,-8.777,-67.332,+0112.5,20160707,20200122
PORTO VELHO,BR,,-8.8,-63.85,+0099.5,20160704,20190921
CONCEICAO DO ARAGUAIA,BR,,-8.283,-49.267,+0181.5,20160704,20210817
PEDRO AFONSO,BR,,-8.967,-48.183,+0190.5,20160704,20210817
GARANHUS,BR,,-8.9,-36.5,+0823.5,20160704,20210817
CARUARU,BR,,-8.233,-35.983,+0551.5,20160704,20210125
PARQUE ESTADUAL CHANDLESS,BR,,-9.367,-69.933,+0207.5,20160704,20210817
ARIQUEMES,BR,,-9.95,-62.967,+0141.5,20160704,20200729
COTRIGUACU,BR,,-9.9,-58.567,+0262.5,20160704,20200405
APIACAS,BR,,-9.567,-57.4,+0221.5,20160704,20210510
ALTA FLORESTA,BR,,-10.067,-56.75,+0295.5,20160704,20200729
CARLINDA,BR,,-9.967,-55.833,+0301.5,20160704,20210107
GUARANTA DO NORTE,BR,,-9.95,-54.883,+0321.5,20160704,20191204
SANTANA DO ARAGUAIA,BR,,-9.333,-50.35,+0169.5,20161008,20210221
UAUA,BR,,-9.833,-39.5,+0454.5,20160704,20210406
PAULO AFONSO,BR,,-9.367,-38.217,+0254.2,20160704,20180129
PAO DE ACUCAR,BR,,-9.767,-37.45,+0020.5,20160704,20200914
NORMANDIA,BR,,3.5,-60.167,+0700.0,19930821,19940707
BOA VISTA,BR,,2.817,-60.65,+0090.0,19740610,20210917
TIRIOS,BR,,2.224,-55.947,+0325.0,19840403,20081112
IAUARETE,BR,,0.608,-69.186,+0105.2,19730101,20151106
MONTE DOURADO,BR,,-0.89,-52.602,+0206.3,20061026,20200214
MACAPA-AEROPORTO,BR,,0.05,-51.067,+0016.0,19430901,20210917
PARI-CACHOEIRA,BR,,-0.167,-69.967,+0115.0,19820105,20150605
TARACUA,BR,,0.067,-68.233,+0105.0,20040709,20040709
OBIDOS,BR,,-1.917,-55.517,+0037.0,19891117,20210725
PARINTINS,BR,,-2.633,-56.733,+0029.0,19730101,20160805
PARNAIBA,BR,,-3.083,-41.783,+0022.0,19760404,20180930
ARACHU,BR,,-2.883,-40.133,+0016.0,19891201,20070417
S.PAULO DE OLIVENCA,BR,,-3.467,-68.95,+0094.0,20010911,20010912
CODAJAS,BR,,-3.833,-62.083,+0049.0,19891117,20210917
MANAUS,BR,,-3.133,-60.017,+0072.0,19330806,20210917
EDUARDO GOMES AERO,BR,,-3.033,-60.05,+0082.0,20201204,20210917
TUCURUI AERO,BR,,-3.767,-49.717,+0253.0,19931113,20130518
SOBRAL,BR,,-3.7,-40.35,+0083.0,19310104,20200322
CARAUARI,BR,,-4.95,-66.9,+0066.0,19730101,20051011
COARI,BR,,-4.083,-63.133,+0046.0,19740610,20160805
PIRIPIRI,BR,,-4.267,-41.783,+0161.0,19950101,20210801
GUARAMIRANGA,BR,,-4.283,-39.0,+0870.0,19380203,20070417
IMPERATRIZ,BR,,-5.533,-47.45,+0131.0,19910927,20210917
IMPERATRIZ,BR,,-5.533,-47.5,+0123.0,19860701,20020410
GRAJAU,BR,,-5.8,-46.45,+0163.0,19380913,20031119
BARRA DO CORDA,BR,,-5.5,-45.267,+0153.0,19310303,20210901
CRATEUS,BR,,-5.167,-40.667,+0299.0,19730102,20180430
NATAL,BR,,-5.767,-35.2,+0045.0,19310104,20190912
SAO FELIX DO XINGU,BR,,-6.633,-51.983,+0150.0,19740610,20210725
FLORIANO,BR,,-6.767,-43.017,+0127.0,19730101,20200320
TAUA,BR,,-6.0,-40.417,+0399.0,19891201,20210724
CARAJAS/MARABA,BR,,-6.117,-50.0,+0618.0,19870117,19890215
IGUATU,BR,,-6.367,-39.3,+0217.0,19310104,20210723
FLORANIA,BR,,-6.117,-36.817,+0324.0,19891201,20070417
CRUZETA,BR,,-6.433,-36.583,+0226.0,19891117,20210725
ALTO TAPAJOS,BR,,-7.35,-57.517,+0140.0,19730101,19771015
BALSAS,BR,,-7.05,-42.067,+0251.0,19951013,20011119
CAROLINA,BR,,-7.32,-47.459,+0172.2,19380719,20210917
URUCUI,BR,,-7.233,-44.55,+0187.0,19900320,19900320
CAMPOS SALES,BR,,-7.0,-40.383,+0583.0,19891117,20070417
PICOS,BR,,-7.067,-41.483,+0208.0,19891117,20200321
BARBALHA,BR,,-7.317,-39.3,+0409.0,19740611,20210725
TRIUNFO,BR,,-7.85,-38.133,+1020.0,19900323,20180331
PATOS,BR,,-7.017,-37.267,+0249.0,19860701,20200320
CAMPINAGRANDE,BR,,-7.267,-35.883,+0500.0,19930101,20210413
BOCA DO ACRE,BR,,-8.75,-67.4,+0119.0,19730101,19850715
PORTO VELHO,BR,,-8.767,-63.917,+0095.0,19730101,20070925
PAULISTANA,BR,,-8.133,-41.133,+0375.0,19910726,20210812
GARANHUNS,BR,,-8.883,-36.517,+0823.0,19310104,20210611
CARUARU,BR,,-8.283,-35.967,+0529.0,20020912,20181222
PESQUEIRA SOUTHWEST,BR,,-8.4,-36.767,+0705.0,19310108,19400301
RIO BRANCO,BR,,-9.967,-67.8,+0160.0,19380111,20210917
COTRIGUACU *                 ,BR,,-9.917,-58.267,-0999.9,19891117,20010306
ALTO PARNAIBA *              ,BR,,-9.117,-45.95,-0999.9,20010916,20210725
BOM JESUS DO PIAUI,BR,,-9.067,-44.367,+0331.0,19740610,20210513
CARACOL,BR,,-9.283,-43.333,+0523.0,19900323,20210723
REMANSO,BR,,-9.633,-42.1,+0401.0,19360824,20210724
PILAR EAST,BR,,-9.583,-35.9,+0131.0,19380913,19440331
MACEIO,BR,,-9.667,-35.7,+0065.0,19310105,20210325
BRASILEIA,BR,,-11.017,-68.733,+0260.0,20011014,20011014
BACACHERI AERO,BR,,-25.4,-49.233,+0927.0,20201204,20210917
LAMBARI,BR,,-21.95,-45.317,+0879.0,20140614,20140614
SAO ROQUE/S. PAULO,BR,,-23.517,-47.117,-0999.9,19900506,19900829
PORTO NACIONAL,BR,,-10.719,-48.4,+0265.2,19730101,20151111
PALMAS AERO,BR,,-10.283,-48.35,+0236.0,20050628,20210917
SENAR DO BOMFMI,BR,,-10.467,-40.183,+0558.0,19891117,20100428
MONTE SANTO,BR,,-10.433,-39.3,+0464.0,19970901,20191121
SAN PEDRO,BR,,-11.417,-61.583,+0305.0,19830701,19840930
CAMPOS DOS GOITACAZES,BR,,-21.7,-41.3,+0017.0,20201204,20210917
BARBACENA AERO,BR,,-21.267,-43.75,+1115.0,20210821,20210821
SANTA ISABEL MORRO,BR,,-11.567,-50.667,+0197.0,19730101,19901017
IRECE,BR,,-11.3,-41.867,+0747.0,19740613,20210723
SERRINHA,BR,,-11.633,-38.967,+0359.0,20000330,20100428
FT PRINCIPE BEIRA,BR,,-12.417,-64.383,+0180.0,19830701,19860928
MATUPA *                     ,BR,,-10.25,-54.917,-0999.9,19891117,20210315
RIO XINGU,BR,,-12.0,-53.4,+0300.0,19730101,19820128
FEIRA DE SANTANA,BR,,-12.183,-38.967,+0231.0,19940401,20100428
PARANA,BR,,-12.55,-47.833,+0275.0,19900312,19970716
CHAPADA DIAMANTINA,BR,,-12.482,-41.277,+0510.8,20101108,20210917
ITABERABA,BR,,-12.55,-40.433,+0249.0,19730128,20180825
ALAGOINHAS,BR,,-12.283,-38.55,+0132.0,19900507,20100428
GLEBA CELESTE,BR,,-12.2,-56.5,+0415.0,19740610,20161108
BOM JESUS DA LAPA AEROPORTO,BR,,-13.267,-43.417,+0441.0,19430401,20070925
ITUACU,BR,,-13.817,-41.3,+0533.0,19900301,20210724
ITIRUCU (JAGUAQUARA)         ,BR,,-13.367,-39.95,+0756.0,19900815,20100428
ALCOMAT *                    ,BR,,-14.25,-59.25,-0999.9,19891117,20050730
FORMOSO,BR,,-14.933,-46.25,+0840.0,19900103,20210831
ESPINOSA *                   ,BR,,-14.967,-42.817,-0999.9,19891117,20070925
CAETITE,BR,,-14.05,-42.617,+0882.0,19310105,20190801
ILHEUS,BR,,-14.8,-39.067,+0060.0,19310101,19980826
POXOREO (POXOREU)            ,BR,,-15.833,-54.383,+0450.0,19790201,20210906
SAO VICENTE,BR,,-15.817,-55.417,+0800.0,20201204,20210726
SANGRADOURO,BR,,-15.633,-53.9,+0555.0,19740720,20041014
PRIMAVERA DO LESTE E,BR,,-15.633,-53.917,+0480.0,19380801,19440330
GOIAS,BR,,-15.917,-50.133,+0512.0,19310101,20171002
GAMA,BR,,-16.05,-48.05,-0999.9,19900313,19930217
BURITIS,BR,,-15.617,-46.417,+0600.0,19891109,20040811
MONTE AZUL,BR,,-15.083,-42.75,+0603.0,19891117,20160101
MOCAMBINHO,BR,,-15.05,-44.017,+0452.0,19891117,20210415
JANAUBA,BR,,-15.783,-43.3,+0516.0,19891117,20070925
CACERES,BR,,-16.05,-57.683,+0118.0,19380201,20161108
CARINHANHA,BR,,-14.167,-43.917,+0556.0,19891117,20191120
RONDONOPOLIS,BR,,-16.45,-54.567,+0284.0,19930101,20070417
LUZIANIA EAST,BR,,-16.267,-47.883,+0910.0,19380403,19440331
UNAI,BR,,-16.367,-46.55,+0460.0,19891201,20210914
MONTES CLAROS AERO,BR,,-16.7,-43.817,+0668.0,20210417,20210417
JOAO PINHEIRO,BR,,-17.7,-46.167,+0760.0,19891117,20141112
PIRAPORA,BR,,-17.333,-44.95,+0505.0,19360824,20190930
TEOFILO OTONI,BR,,-17.85,-41.517,+0356.0,19310101,20080928
COXIM,BR,,-18.5,-54.767,+0287.0,19891117,19970524
NHUMIRIM,BR,,-18.983,-56.65,+0089.0,19891201,20011009
CAPINOPOLIS,BR,,-18.683,-49.567,+0621.0,19891118,20110718
ITAITUBA,BR,,-18.967,-49.517,+0561.0,20201217,20201217
PATOS DE MINAS,BR,,-18.6,-46.517,+0940.0,19891117,20180601
CURVELO,BR,,-18.767,-44.433,+0616.0,19900314,19950608
DIAMANTINA,BR,,-18.25,-43.6,+1297.0,19360824,20200301
GOVERNADOR VALADARES,BR,,-18.85,-41.933,+0277.0,19891117,20070417
CORUMBA (AEROPORTO)          ,BR,,-19.0,-57.667,+0141.0,19770601,20210917
CONFINS (AERO)               ,BR,,-19.617,-43.967,+0827.0,20000828,20210917
POMPEU,BR,,-19.217,-45.0,+0691.0,19891117,20070925
FRUTAL,BR,,-20.033,-48.933,+0543.0,19970901,20130527
UBERABA,BR,,-19.75,-47.917,+0743.0,19360824,20110718
FLORESTAL,BR,,-19.883,-44.417,+0753.0,19730313,19740503
BAMBUI,BR,,-20.0,-45.983,+0661.0,19891201,20180405
SETE LAGOAS,BR,,-19.467,-44.25,+0732.0,19891117,20110718
AIMORES,BR,,-19.483,-41.067,+0083.0,19891117,20140709
LINHARES,BR,,-19.4,-40.067,+0028.0,19891201,20090313
MOELA,BR,,-24.05,-46.267,+0100.0,20100915,20180716
ANASTACIO,BR,,-20.467,-55.8,+0156.0,19310102,19400301
CAMPO GRANDE,BR,,-20.45,-54.617,+0530.0,19740913,20070925
AGUA CLARA,BR,,-20.45,-52.883,+0365.0,19891117,20040423
PRESIDENTE PRUDENTE AERO,BR,,-22.167,-51.417,+0449.0,20201204,20210917
URUBUPUNGA,BR,,-20.777,-51.565,+0356.3,19730101,20071107
TRES LAGOAS,BR,,-20.783,-51.7,+0313.0,19380804,20080928
VOTUPORANGA,BR,,-20.417,-49.983,+0503.0,19880513,20210724
S SEBASTIAO DO OARAISO,BR,,-20.917,-47.117,+0820.0,20160704,20191204
FURNAS/PRIVATE,BR,,-20.7,-46.333,+0735.0,19730101,19820609
DIVINOPOLIS,BR,,-20.167,-44.867,+0789.0,20201204,20210719
VICOSA,BR,,-20.75,-42.85,+0690.0,19360824,20070925
CACHOEIRO ITAPEMIRIM,BR,,-20.85,-41.1,+0077.0,19310101,20040114
PORTO MURTINHO,BR,,-21.717,-57.883,+0098.0,19891117,19901007
DOURADOS,BR,,-22.233,-54.817,+0452.0,19891107,20011224
MARAMBAIA,BR,,-23.05,-43.6,+0016.0,19840501,20000601
ARACATUBA,BR,,-21.2,-50.433,+0397.0,20070717,20130430
ARARAQUARA,BR,,-21.812,-48.133,+0711.4,20070717,20200331
CRICIUM/FORQUILHINHA,BR,,-28.733,-49.417,+0028.3,20070717,20170719
TANCREDO THOMAS DE FARIA,BR,,-25.387,-51.52,+1065.0,20070717,20150729
LINS,BR,,-21.667,-49.75,+0426.0,20020415,20020415
CATANDUVA,BR,,-21.133,-48.967,+0536.0,19880423,20210724
CALDAS,BR,,-21.917,-46.383,+1150.0,19310101,20130430
MUZAMBINHO,BR,,-21.367,-46.517,+1052.0,19360824,20200713
CAMBUQUIRA,BR,,-21.85,-45.3,+0960.0,19310101,19440331
ITAOCARA SOUTHEAST,BR,,-21.817,-42.017,+0609.0,19360824,19400301
POCO FUNDO SOUTH,BR,,-21.817,-45.95,+0917.0,19360824,19440321
SAO JOAO DEL REI,BR,,-21.3,-44.267,+0991.0,19360824,19440331
PONTA PORA,BR,,-22.533,-55.7,+0650.0,19730101,20160201
IVINHEMA,BR,,-22.317,-53.933,+0369.0,19891117,20140615
AIRPORT ESTADUAL ARTHUR SIQUE,BR,,-22.983,-46.533,+0880.2,20120622,20120622
JUNDIAI AIRPORT,BR,,-23.183,-46.933,+0757.3,20120709,20161008
CAMPOS DO JORDAO,BR,,-22.733,-45.583,+1579.0,19880513,20100428
CAMPINAS,BR,,-22.9,-47.083,+0669.0,19310101,19810925
OURO FINO,BR,,-22.283,-46.55,+0925.0,19360824,19901113
VOLTA REDONDA,BR,,-22.483,-44.083,+0374.0,19730101,19870713
VASSOURAS,BR,,-22.4,-43.667,+0437.0,19360824,19900625
ILHA RASA,BR,,-23.067,-43.15,+0075.0,19790112,20010830
NOVA FRIBURGO,BR,,-22.283,-42.533,+0856.0,19310101,20020129
PETROPOLIS,BR,,-22.517,-43.183,+0850.0,19320715,19440331
JACAREZINHO,BR,,-23.15,-49.967,+0471.0,19940503,19951231
AVARE,BR,,-23.1,-48.917,+0793.0,19360824,20070925
ITAPEVA,BR,,-23.95,-48.883,+0647.0,19310101,19970609
GUAIRA,BR,,-24.083,-54.25,+0230.0,19730101,19970823
SANTOS,BR,,-23.933,-46.317,+0014.0,19310101,20040311
CAMPO MOURAO,BR,,-24.05,-52.367,+0616.0,19891117,20100914
MOELA,BR,,-24.05,-46.267,+0101.0,19790112,20020113
SAO JOSE DOS CAMPOS,BR,,-23.233,-45.833,+0625.0,19730101,19780813
IVAI,BR,,-24.4,-50.833,+0808.0,19360824,20210725
CASTRO,BR,,-24.783,-50.0,+1009.0,19360829,20210725
JAGUARIAIVA,BR,,-24.25,-49.7,+0923.0,19380621,20190725
FOZ-DO-IGUACU(DEAD)          ,BR,,-25.533,-54.6,+0226.0,19740730,19820525
TOLEDO,BR,,-24.733,-53.733,+0550.0,19900519,19970914
SAO JOSE DOS CAMPOS AERO,BR,,-23.217,-45.867,+0646.0,19770501,20210917
S.MIGUEL IGUACU,BR,,-25.333,-54.25,+0290.0,19810601,19941111
GUARAPUAVA,BR,,-25.4,-51.467,+0609.0,19310101,20030206
EMBRAER UNIDADE GAVIAO PEIXOT,BR,,-21.774,-48.405,+0609.0,20130125,20130125
PONTA GROSSA,BR,,-25.1,-50.167,+0868.0,19360824,20011108
TREMEMBE,BR,,-23.967,-45.55,+0547.0,19360824,19950727
PALMAS,BR,,-26.483,-51.983,+1090.0,19310101,19991202
PORTO UNIAO,BR,,-26.233,-51.067,+0778.0,19900901,19970425
RIO NEGRO,BR,,-26.1,-49.8,+0824.0,19360824,20040128
IRINEOPOLIS,BR,,-26.25,-50.8,+0783.0,19380407,19400301
INDAIAL,BR,,-26.9,-49.217,+0068.0,19891201,20070925
SAO FRANCISCO DO SUL,BR,,-26.25,-48.65,+0072.0,19310101,20050829
IRAI,BR,,-27.183,-53.233,+0247.0,19730101,20180801
BELA VISTA DE GOIAS,BR,,-16.967,-48.95,+0152.0,19310814,19391125
CAMPOS NOVOS,BR,,-27.4,-51.2,+0947.0,19310101,20170801
IMARIBO,BR,,-27.2,-50.95,+0982.0,19841001,19900831
LAGES,BR,,-27.817,-50.333,+0937.0,19310101,20070925
PARAIBA DO SUL SW,BR,,-22.233,-43.333,+0377.0,19310101,19320407
ARVOREDO,BR,,-27.3,-48.35,+0020.0,19790115,20030304
VACARIA,BR,,-28.55,-50.867,+0955.0,19900305,20031226
S. JOAQUIM,BR,,-28.283,-49.917,+1402.0,19891117,20070925
URUSSANGA,BR,,-28.517,-49.317,+0049.0,19360903,19400301
LAGUNA,BR,,-28.483,-48.8,+0031.0,19360826,19901009
URUGUAIANA,BR,,-29.75,-57.083,+0062.0,19740612,20190402
RUBEM BERTA,BR,,-29.782,-57.038,+0078.0,19310102,20210917
ALEGRETE,BR,,-29.683,-55.517,+0121.0,19360824,19900124
TORRES,BR,,-29.333,-49.733,+0031.0,19730101,20210428
SANTANA DO LIVRAMENTO,BR,,-30.883,-55.533,+0231.0,19891122,20070925
ENCRUZILHADA DO SUL,BR,,-30.533,-52.517,+0428.0,19730101,20210725
SANTANA DO IPANEMA E,BR,,-9.367,-37.2,+0429.0,19310101,19310926
GENERAL CARNEIRO,BR,,-15.717,-52.75,+0416.0,19330802,19380731
ITAITUBA,BR,,-4.25,-56.0,+0034.0,19870629,19920930
MONTE DOURADO,BR,,-0.883,-52.6,+0200.0,19870629,19880509
PUERTO PINASCO,BR,,-21.267,-56.183,+0079.9,19600202,19640413
CONFRESA,BR,,-10.65,-51.567,+0238.5,20160704,20171203
BURITIRAMA,BR,,-10.717,-43.65,+0503.5,20160704,20200517
DELFINO,BR,,-10.45,-41.2,+0638.5,20160704,20201229
CARIRA,BR,,-10.4,-37.75,+0309.5,20160704,20210412
BREJO GRANDE,BR,,-10.467,-36.483,+0011.5,20160706,20200814
CORURIPE,BR,,-10.133,-36.283,+0075.5,20160704,20201203
EPITACIOLANDIA,BR,,-11.017,-68.733,+0218.5,20160704,20200426
JUARA,BR,,-11.283,-57.533,+0261.5,20160704,20200923
SINOP,BR,,-11.983,-55.567,+0372.5,20160704,20200703
SAO FELIX DO ARAGUAIA,BR,,-11.617,-50.733,+0219.5,20160704,20210817
SANTA RITA DE CASSIA,BR,,-11.017,-44.533,+0451.5,20160704,20210712
JACOBINA,BR,,-11.2,-40.467,+0454.5,20160704,20200903
CONDE,BR,,-11.817,-37.617,+0015.5,20160704,20210227
NOVO MUNDO,BR,,-12.517,-58.233,+0432.5,20160704,20200822
SORRISO,BR,,-12.55,-55.717,+0381.5,20160704,20200901
QUERENCIA,BR,,-12.633,-52.217,+0383.5,20160704,20201201
LUIS EDUARDO MAGALHAES,BR,,-12.15,-45.817,+0755.5,20160704,20201001
CRUZ DAS ALMAS,BR,,-12.667,-39.15,+0227.4,20160704,20210420
FEIRA DE SANTANA,BR,,-12.2,-38.967,+0232.5,20160704,20210321
COMODORO,BR,,-13.717,-59.767,+0592.5,20160704,20210119
CAMPO NOVO DOS PARECIS,BR,,-13.783,-57.833,+0571.5,20160704,20210415
NOVA MARINGA,BR,,-13.033,-57.1,+0354.5,20160704,20201122
SAO JOSE DO RIO CLARO,BR,,-13.45,-56.667,+0351.5,20110213,20201204
NOVA UBIRATA,BR,,-13.417,-54.75,+0519.5,20160704,20191204
GAUCHA DO NORTE,BR,,-13.183,-53.25,+0380.5,20160704,20210325
MONTE ALEGRE DE GOIAS,BR,,-13.25,-46.883,+1254.5,20160704,20210817
BOM JESUS DA LAPA,BR,,-13.267,-43.417,+0441.5,20160704,20201229
PIATA,BR,,-13.15,-41.767,+1291.5,20160704,20210817
VALENCA,BR,,-13.35,-39.133,+0106.5,20210817,20210817
MARAU,BR,,-13.907,-38.972,+0011.5,20160704,20210224
TANGARA DA SERRA,BR,,-14.65,-57.433,+0323.0,20160704,20201123
PARANATINGA,BR,,-14.417,-54.033,+0475.5,20160704,20200224
SANTO ANTONIO DO LESTE,BR,,-14.933,-53.883,+0649.5,20160704,20191204
AGUA BOA,BR,,-14.017,-52.217,+0433.5,20160704,20210727
NIQUELANDIA,BR,,-14.467,-48.45,+0584.5,20160704,20180507
ESPINOSA,BR,,-14.917,-42.8,+0571.5,20160704,20190719
VITORIA DA CONQUISTA,BR,,-14.883,-40.8,+0874.0,20160704,20210413
IPIAU,BR,,-14.167,-39.7,+0126.5,20160704,20201125
VILA BELA DA S TRINDADE,BR,,-15.067,-59.867,+0223.5,20160704,20191204
PONTES E LACERDA,BR,,-15.25,-59.35,+0257.5,20160704,20191204
SALTO DO CEU,BR,,-15.125,-58.128,+0304.5,20160704,20200722
CALDAS NOVAS AIRPORT,BR,,-17.733,-48.6,+0684.9,20140211,20140211
FACULDADE DA TERRA,BR,,-15.9,-48.117,+1153.5,20160704,20191204
BURITIS,BR,,-15.517,-46.433,+0895.5,20160704,20210601
ITAPETINGA,BR,,-15.25,-40.233,+0270.5,20160704,20210419
UNA,BR,,-15.283,-39.083,+0083.5,20210817,20210817
GUIRATINGA,BR,,-16.35,-53.767,+0527.5,20160704,20210605
BELMONTE,BR,,-16.083,-39.217,+0089.5,20160704,20210111
PORTO SEGURO,BR,,-16.383,-39.183,+0086.5,20160704,20200813
ITIQUIRA,BR,,-17.183,-54.5,+0586.5,20160704,20191123
GUARDA-MOR,BR,,-17.567,-47.2,+1001.5,20160704,20210407
CAPELINHA,BR,,-17.7,-42.383,+0933.5,20160912,20210516
SERRA DOS AIMORES,BR,,-17.8,-40.25,+0209.5,20160704,20201212
CARAVELAS,BR,,-17.733,-39.25,+0004.4,20160704,20200503
ABROLHOS,BR,,-17.967,-38.7,+0026.5,20160704,20201027
NHUMIRIM,BR,,-18.983,-56.617,+0105.5,20160704,20200510
CHAPADAO DO SUL,BR,,-18.8,-52.6,+0819.5,20160826,20200222
ITUIUTABA,BR,,-18.95,-49.533,+0561.5,20160704,20210410
SAO GABRIEL DO OESTE,BR,,-19.417,-54.55,+0648.5,20160704,20210409
PARANAIBA,BR,,-19.7,-51.183,+0425.5,20160704,20200822
AIMORES,BR,,-19.5,-41.067,+0194.5,20160704,20200511
BARRETOS,BR,,-20.567,-48.55,+0534.5,20160704,20210916
IBIRITE (ROLA MOCA)          ,BR,,-20.033,-44.017,+1209.5,20160704,20210817
MANHUACU,BR,,-20.267,-42.183,+0837.5,20160704,20201027
ALEGRE,BR,,-20.75,-41.483,+0139.5,20160704,20210618
MARACAJU,BR,,-21.617,-55.183,+0403.0,20160704,20191211
JOSE BONIFACIO,BR,,-21.083,-49.917,+0406.5,20160704,20200518
LINS,BR,,-21.667,-49.733,+0461.0,20160704,20210224
CASA BRANCA,BR,,-21.783,-47.083,+0731.5,20160704,20200624
SAO JOAO DEL-REI,BR,,-21.1,-44.25,+0992.5,20160704,20210817
PRESIDENTE KENNEDY,BR,,-21.1,-41.033,+0081.5,20160704,20210817
CAMPOS,BR,,-21.717,-41.35,+0026.5,20160704,20210817
JUTI,BR,,-22.85,-54.6,+0380.5,20160704,20200816
DIAMANTE DO NORTE,BR,,-22.633,-52.883,+0363.5,20160704,20210120
PARANAPOEMA,BR,,-22.65,-52.133,+0312.5,20160704,20210314
OURINHOS,BR,,-22.95,-49.9,+0449.5,20160704,20200820
PIRACICABA,BR,,-22.7,-47.45,+0572.5,20160905,20201120
ITAPIRA,BR,,-22.417,-46.8,+0634.5,20160704,20200516
VALENCA,BR,,-22.35,-43.7,+0358.5,20210817,20210817
PICO DO COUTO,BR,,-22.467,-43.283,+1778.5,20160704,20191204
XEREM,BR,,-22.583,-43.267,+0034.5,20160704,20210817
SEROPEDICA-ECOLOGIA AGRICOLA,BR,,-22.8,-43.683,+0035.5,20160704,20210817
RIO DE JANEIRO-VILA MILITAR,BR,,-22.861,-43.411,+0046.5,20160704,20210817
RIO DE JANEIRO-FORTE DE COPAC,BR,,-22.983,-43.183,+0046.5,20160704,20210817
TERESOPOLIS,BR,,-22.449,-42.987,+0981.5,20160704,20210817
NOVA FRIBURGO,BR,,-22.333,-42.677,+1047.5,20160704,20210817
SAO TOME,BR,,-22.042,-41.052,+0005.5,20130109,20210817
AMAMBAI,BR,,-23.0,-55.333,+0432.5,20160704,20201105
SETE QUEDAS,BR,,-23.967,-55.024,+0403.5,20160704,20210209
ICARAIMA,BR,,-23.39,-53.66,+0386.5,20160704,20200910
NOVA FATIMA,BR,,-23.417,-50.583,+0669.5,20160704,20210127
IBAITI,BR,,-23.767,-50.183,+0931.5,20160704,20210310
SAO MIGUEL ARCANJO,BR,,-23.85,-48.167,+0645.5,20160704,20210817
SAO PAULO-MIRANTE DE SANTANA,BR,,-23.496,-46.62,+0793.6,20160704,20210817
TAUBATE,BR,,-23.042,-45.52,+0572.5,20160704,20210226
SAO LUIS DO PARAITINGA,BR,,-23.233,-45.417,+0875.5,20160704,20191204
RIO DE JANEIRO-MARAMBAIA,BR,,-23.05,-43.6,+0011.2,20160704,20210817
MARECHAL CANDIDO RONDON,BR,,-24.533,-54.017,+0393.5,20160704,20210817
GOIOERE,BR,,-24.183,-53.033,+0469.5,20160704,20200820
NOVA TEBAS,BR,,-24.433,-51.967,+0655.5,20160704,20200822
CASTRO,BR,,-24.783,-49.983,+1008.9,20160704,20200325
BARRA DO TURVO,BR,,-24.967,-48.417,+0668.5,20160704,20191116
IGUAPE,BR,,-24.667,-47.55,+0004.5,20160704,20210814
FOZ DO IGUACU,BR,,-25.6,-54.483,+0232.5,20160704,20200929
PLANALTO,BR,,-25.717,-53.75,+0347.5,20160704,20210208
DOIS VIZINHOS,BR,,-25.7,-53.1,+0521.5,20160704,20210207
ILHA DO MEL,BR,,-25.494,-48.326,+0002.5,20160704,20180202
SAO MIGUEL DO OESTE,BR,,-26.783,-53.5,+0666.5,20160704,20210817
NOVO HORIZONTE,BR,,-26.4,-52.85,+0961.5,20160704,20210817
GEN CARNEIRO,BR,,-26.4,-51.35,+1019.5,20160704,20210817
ITAPOA,BR,,-26.083,-48.65,+0003.5,20160704,20210508
ITAJAI,BR,,-26.951,-48.762,+0019.5,20160704,20201025
FREDERICO WESTPHALEN,BR,,-27.396,-53.429,+0491.5,20160704,20210305
ITUPORANGA,BR,,-27.418,-49.647,+0485.5,20160704,20210326
FLORIANOPOLIS-SAO JOSE,BR,,-27.6,-48.617,+0003.3,20160704,20210817
SAO LUIZ GONZAGA,BR,,-28.417,-54.967,+0246.5,20160705,20210629
SANTA MARTA,BR,,-28.6,-48.817,+0054.0,20160704,20210508
DOM PEDRITO,BR,,-30.983,-54.817,+0171.5,20160727,20201124
BAGE,BR,,-31.348,-54.013,+0231.5,20160727,20201105
MOSTARDAS,BR,,-31.248,-50.906,+0011.5,20160704,20200606
CHUI,BR,,-33.742,-53.371,+0027.5,20160704,20210817
BOGUS BRAZILIAN,BR,,,,,19880601,19891024
BOGUS BRAZILIAN,BR,,,,,19891117,20010926
BOGUS BRAZILIAN,BR,,,,,19861025,20031122
BOGUS BRAZILIAN,BR,,,,,19890401,19891030
OYAPOCK,BR,,3.867,-51.817,+0000.0,19431007,19451021
IPIRANGA(?)                  ,BR,,-2.983,-69.583,+0000.0,19830701,19841101
BARRETO,BR,,-20.633,-48.567,+0000.0,19931007,20040914
PONTA DA ARMACAO,BR,,-22.883,-43.033,+0002.0,19790901,19840828
MACAE AERO,BR,,-22.333,-41.75,+0002.0,19360112,20210917
ANGRA DOS REIS,BR,,-23.017,-44.317,+0002.0,19310101,19951026
FLORIANOPOLIS,BR,,-27.583,-48.567,+0002.0,19310101,20070925
RIO GRANDE,BR,,-32.017,-52.083,+0002.0,19310107,20190815
SANTA CRUZ AERO,BR,,-22.933,-43.717,+0003.0,20201204,20210917
IGUAPE,BR,,-24.717,-47.55,+0003.0,19970910,20091218
PONTA DO CEU,BR,,0.767,-50.1,+0004.0,19801005,19960517
JOINVILLE,BR,,-26.217,-48.783,+0004.0,20201204,20210917
SAO SEBASTIAO,BR,,-23.8,-45.4,+0005.0,19380913,19901218
SAO SEBASTIAO,BR,,-23.8,-45.417,+0005.0,19790312,19900727
ARACAJU,BR,,-10.917,-37.05,+0005.0,19310104,20201231
CANAVIEIRAS,BR,,-15.667,-38.95,+0005.0,19840107,20210724
RIO DE JANEIRO,BR,,-22.917,-43.167,+0005.0,19310101,20160925
PARANAGUA,BR,,-25.517,-48.517,+0005.0,19310101,20210917
NAVEGANTES AERO,BR,,-26.867,-48.633,+0005.0,19360904,20210917
MACAU,BR,,-5.117,-36.633,+0006.0,19730222,20180801
RECIFE,BR,,-8.05,-34.917,+0007.0,19730101,20210526
CABO FRIO,BR,,-22.983,-42.033,+0007.0,19730101,19971105
FAROL SANTANA,BR,,-2.267,-43.617,+0008.0,19801024,20040723
UBATUBA,BR,,-23.45,-45.067,+0008.0,19891117,20070417
CANOAS,BR,,-29.933,-51.133,+0008.0,19840601,20210917
RECIFE  BRAZIL/IBURA FLD,BR,,-8.116,-34.916,+0009.0,19430801,19460801
AMAPA,BR,,2.067,-50.85,+0010.0,19430601,20120202
SOURE,BR,,-0.717,-48.55,+0011.0,19381101,20210725
FOZ DO SAO FRANCISCO,BR,,-10.65,-36.167,+0011.0,19380913,19410930
CARAVELAS,BR,,-17.652,-39.253,+0011.0,19610101,20171018
JAGUARUANA,BR,,-4.783,-37.767,+0012.0,19911101,20070925
MANAIRA,BR,,-7.55,-34.817,+0015.0,19310104,19360714
SAO GABRIEL DA CACH,BR,,-0.133,-67.083,+0090.0,19730101,20081231
MONTE DOURADO,BR,,-0.883,-52.6,+0206.0,20081030,20081231
CARAJAS,BR,,-6.117,-50.0,+0637.0,20040729,20081231
TARAUACA,BR,,-8.167,-70.767,+0190.0,19740610,20081231
CACHIMBO,BR,,-9.333,-54.967,+0551.0,19920626,20081231
UBERLANDIA,BR,,-18.883,-48.217,+0967.0,19910827,20081231
PORTO SEGURO,BR,,-16.433,-39.067,+0051.0,20080101,20081231
LEITE LOPES,BR,,-21.133,-47.767,+0563.0,19920807,20081231
GUARULHOS,BR,,-23.433,-46.467,+0768.0,19880621,20081231
MACAE,BR,,-22.333,-41.767,+0003.0,19900207,20081231
ARAPIRACA,BR,,-9.8,-36.617,+0242.5,20150830,20210422
HOTEL TRANSAMERICA,BR,,-15.355,-38.999,+0006.1,19730101,20210919
PARACATU,BR,,-17.217,-46.867,+0711.0,19380503,20210919
IPAMERI,BR,,-17.717,-48.167,+0752.0,19890901,20210919
SAO LOURENCO,BR,,-22.1,-45.017,+0900.0,19310101,20210919
BELEM,BR,,-1.417,-48.433,+0025.5,20160704,20210920
CASTANHAL,BR,,-1.3,-47.95,+0066.5,20160704,20210920
RIO URUBU,BR,,-2.433,-59.567,+0060.5,20160704,20210920
TOME-ACU,BR,,-2.6,-48.367,+0039.5,20160704,20210920
SAO LUIS,BR,,-2.533,-44.217,+0057.5,20160704,20210920
PREGUICAS,BR,,-3.3,-60.633,+0020.5,20160704,20210920
MANAUS,BR,,-3.133,-59.95,+0068.5,20160704,20210920
ITACOATIARA,BR,,-3.133,-58.483,+0038.5,20160704,20210920
PARNAIBA,BR,,-3.067,-41.783,+0058.5,20160704,20210920
FORTALEZA,BR,,-3.8,-38.533,+0042.5,20160704,20210920
SAO GONCALO,BR,,-6.836,-38.311,+0235.5,20160704,20210920
NOVO REPARTIMENTO,BR,,-4.25,-49.933,+0114.5,20160712,20210920
BACABAL,BR,,-4.25,-44.8,+0029.5,20160704,20210920
PIRIPIRI,BR,,-4.283,-41.8,+0162.5,20160918,20210920
JUAGUARUANA,BR,,-4.783,-37.783,+0013.5,20160704,20210920
IMPERATRIZ,BR,,-5.55,-47.467,+0127.5,20160704,20210920
BARRA DO CORDA,BR,,-5.5,-45.233,+0154.5,20160704,20210920
TERESINA,BR,,-5.033,-42.8,+0075.9,20160704,20210920
CRATEUS,BR,,-5.186,-40.672,+0292.5,20160705,20210920
QUIXERAMOBIM,BR,,-5.167,-39.283,+0219.5,20160704,20210920
MORADA NOVA,BR,,-5.133,-38.35,+0045.1,20130405,20210920
APODI,BR,,-5.627,-37.832,+0151.5,20160731,20210920
NATAL,BR,,-5.833,-35.2,+0066.5,20160704,20210920
CANTO DO BURITI,BR,,-8.117,-42.983,+0309.5,20160704,20210920
FLORIANO,BR,,-6.767,-43.017,+0124.8,20160704,20210920
IGUATU,BR,,-6.4,-39.267,+0234.5,20160704,20210920
CAICO,BR,,-6.467,-37.083,+0171.5,20160704,20210920
AREIA,BR,,-6.967,-35.683,+0576.1,20160704,20210920
LABREA,BR,,-7.267,-64.783,+0065.5,20160704,20210920
CAROLINA,BR,,-7.333,-47.467,+0193.5,20160704,20210920
PICOS,BR,,-7.071,-41.404,+0234.5,20160704,20210920
OURICURI,BR,,-7.533,-40.033,+0465.5,20160704,20210920
BARBALHA,BR,,-7.3,-39.267,+0410.5,20160704,20210920
SERRA TALHADA,BR,,-7.95,-38.3,+0462.5,20160704,20210920
PATOS,BR,,-7.083,-37.267,+0282.0,20160704,20210920
MONTEIRO,BR,,-7.9,-37.117,+0606.5,20160704,20210920
CAMPNA GRANDE,BR,,-7.233,-35.9,+0549.5,20160704,20210920
SURUBIM,BR,,-7.85,-35.783,+0419.5,20160704,20210920
JOAO PESSOA,BR,,-7.15,-34.85,+0045.5,20160704,20210920
FEIJO,BR,,-8.142,-70.343,+0164.5,20160924,20210920
PAULISTANA,BR,,-8.133,-41.15,+0375.5,20120111,20210920
CABROBO,BR,,-8.5,-39.317,+0343.5,20160704,20210920
ARCO VERDE,BR,,-8.433,-37.083,+0682.0,20160704,20210920
IBIMIRIM,BR,,-8.517,-37.717,+0449.5,20160704,20210920
PALMARES,BR,,-8.667,-35.567,+0181.5,20160704,20210920
RECIFE,BR,,-8.05,-34.95,+0011.5,20160704,20210920
RIO BRANCO,BR,,-9.95,-68.167,+0221.5,20160925,20210920
ALTO PARNAIBA,BR,,-9.1,-45.933,+0282.5,20160704,20210920
GILBUES,BR,,-9.867,-45.35,+0426.5,20160704,20210920
BOM JESUS DO PIAUI,BR,,-9.083,-44.333,+0298.5,20160704,20210920
CARACOL,BR,,-9.283,-43.317,+0524.5,20160704,20210920
SAO RAIMUNDO NONATO,BR,,-9.033,-42.7,+0403.5,20160704,20210920
REMANSO,BR,,-9.617,-42.083,+0402.5,20160704,20210920
PETROLINA,BR,,-9.383,-40.8,+0370.5,20160705,20210920
PALMEIRA DOS INDIOS,BR,,-9.417,-36.617,+0276.5,20160704,20210920
SAO LUIS DO QU,BR,,-9.283,-35.567,+0020.5,20160704,20210920
MACEIO,BR,,-9.55,-35.767,+0066.0,20160704,20210920
OIAPOQUE,BR,,3.855,-51.797,+0019.2,19380603,20210920
BOA VISTA,BR,,2.846,-60.69,+0084.1,19730101,20210920
MARILIA,BR,,-22.197,-49.926,+0646.8,20071016,20210920
SANTO ANGELO,BR,,-28.282,-54.169,+0321.9,20071016,20210920
CARACARAI,BR,,1.833,-61.133,+0095.0,19890208,20210920
MACAPA,BR,,0.051,-51.072,+0017.1,19730101,20210920
SAO GABRIEL DA CACHOEIRA AERO,BR,,-0.117,-66.967,+0079.0,20050101,20210920
EDUARDO GOMES INTL,BR,,-3.039,-60.05,+0080.5,19770501,20210920
BARCELOS,BR,,-0.981,-62.92,+0034.1,19730101,20210920
SALINOPOLIS,BR,,-0.617,-47.383,+0014.0,19810201,20210920
TRACUATEUA (BRAGANCA)        ,BR,,-1.083,-46.933,+0036.0,19900112,20210920
MONTE ALEGRE,BR,,-2.0,-54.083,+0146.0,19891114,20210920
PORTO DE MOZ,BR,,-1.733,-52.233,+0016.0,19730101,20210920
VAL DE CANS INTL,BR,,-1.379,-48.476,+0016.5,19421001,20210920
TURIACU,BR,,-1.717,-45.4,+0044.0,19761101,20210920
FONTE BOA,BR,,-2.533,-66.167,+0056.0,19740610,20210920
SANTAREM,BR,,-2.422,-54.793,+0060.4,19730101,20210920
BELTERRA,BR,,-2.633,-54.95,+0176.0,19740610,20210920
CAMETA,BR,,-2.25,-49.5,+0024.0,19891114,20210920
SAO LUIZ,BR,,-2.533,-44.3,+0051.0,19310202,20210920
MARECHAL CUNHA MACHADO INTL,BR,,-2.585,-44.234,+0054.3,19430501,20210920
PARNAIBA PREFEITO DR JOAO SIL,BR,,-2.894,-41.732,+0004.9,19430512,20210920
TEFE,BR,,-3.383,-64.724,+0056.1,19730101,20210920
PONTA PELADA,BR,,-3.146,-59.986,+0081.4,19730101,20210920
ITACOATIARA,BR,,-3.127,-58.481,+0043.3,19730101,20210920
TOCANTINS,BR,,-10.292,-48.357,+0235.9,20050903,20210920
ALTAMIRA,BR,,-3.254,-52.254,+0112.2,19730101,20210920
TUCURUI,BR,,-3.786,-49.72,+0253.0,19861004,20210920
ZE DOCA,BR,,-3.717,-45.533,+0046.0,19900330,20210920
CHAPADINHA,BR,,-3.733,-43.35,+0104.0,20020311,20210920
FORTALEZA,BR,,-3.767,-38.6,+0026.0,19310104,20210920
PINTO MARTINS INTL,BR,,-3.776,-38.533,+0025.0,19360824,20210920
FERNANDO DE NORONHA,BR,,-3.855,-32.423,+0058.8,19310101,20210920
BENJAMIN CONSTANT,BR,,-4.383,-70.033,+0065.0,19730101,20210920
TABATINGA,BR,,-4.256,-69.936,+0085.0,19790606,20210920
ITAITUBA,BR,,-4.242,-56.001,+0033.5,19921001,20210920
ITAITUBA,BR,,-4.267,-55.983,+0045.0,19881103,20210920
BACABAL,BR,,-4.25,-44.783,+0025.0,19890801,20210920
CAXIAS,BR,,-4.867,-43.35,+0103.0,19380913,20210920
MANICORE,BR,,-5.811,-61.278,+0053.0,19740215,20210920
MARABA,BR,,-5.369,-49.138,+0108.8,19730101,20210920
PREFEITO RENATO MOREIRA,BR,,-5.531,-47.46,+0131.4,19770601,20210920
CARAJAS,BR,,-6.118,-50.003,+0621.2,20050101,20210920
TERESINA,BR,,-5.083,-42.817,+0074.0,19770201,20210920
SENADOR PETRONIO PORTELLA,BR,,-5.06,-42.823,+0066.8,19310104,20210920
QUIXERAMOBIM,BR,,-5.2,-39.3,+0212.0,19310104,20210920
MORADA NOVA,BR,,-5.083,-38.383,+0044.0,19900107,20210920
APODI,BR,,-5.65,-37.8,+0065.0,19900105,20210920
DIX SEPT ROSADO,BR,,-5.202,-37.364,+0023.5,19730101,20210920
CALCANHAR,BR,,-5.167,-35.483,+0014.0,19810205,20210920
CEARA-MIRIM,BR,,-5.65,-35.417,+0061.0,19760404,20210920
AUGUSTO SEVERO,BR,,-5.911,-35.248,+0051.5,19430801,20210920
MINISTRO VICTOR KONDER INTL,BR,,-26.88,-48.651,+0005.5,20050502,20210920
EIRUNEPE,BR,,-6.667,-69.867,+0104.0,19730101,20210920
JACAREACANGA,BR,,-6.233,-57.777,+0098.8,19730101,20210920
ARAGUAINA,BR,,-7.2,-48.2,+0228.0,19891201,20210920
COLINAS,BR,,-6.033,-44.233,+0180.0,20201204,20210920
SAO GONCALO,BR,,-6.75,-38.217,+0233.0,19891117,20210920
SERIDO / CAICO,BR,,-6.467,-37.083,+0170.0,19380913,20210920
CRUZEIRO DO SUL,BR,,-7.6,-72.769,+0194.2,19740201,20210920
LABREA,BR,,-7.25,-64.833,+0060.0,19730101,20210920
OURICURI,BR,,-7.9,-40.05,+0459.0,19910823,20210920
CAROLINA,BR,,-7.333,-47.467,+0193.0,19730101,20210920
BALSAS / MARANHAO,BR,,-7.517,-46.05,+0283.0,20010916,20210920
MONTEIRO,BR,,-7.883,-37.067,+0599.0,19950201,20210920
PRESIDENTE JOAO SUASSUNA,BR,,-7.27,-35.896,+0501.7,19310108,20210920
SURUBIM,BR,,-7.833,-35.717,+0418.0,19380503,20210920
LAURO CARNEIRO DE LOYOLA,BR,,-26.224,-48.797,+0004.6,20060625,20210920
TARAUACA,BR,,-8.155,-70.783,+0196.9,20050101,20210920
GOVERNADOR JORGE TEIXEIRA DE,BR,,-8.709,-63.902,+0089.6,19821101,20210920
CONCEICAO DO ARAGUAIA,BR,,-8.348,-49.302,+0199.0,19730101,20210920
PEDRO AFONSO,BR,,-8.967,-48.183,+0187.0,19890901,20210920
S.JOAO DO PIAUI,BR,,-8.35,-42.25,+0235.0,19950401,20210920
CABROBO,BR,,-8.517,-39.333,+0341.0,19900105,20210920
ARCOVERDE,BR,,-8.417,-37.083,+0682.0,20201204,20210920
GUARARAPES GILBERTO FREYRE IN,BR,,-8.126,-34.924,+0010.1,19310104,20210920
PRESIDENTE MEDICI,BR,,-9.869,-67.894,+0193.2,19830702,20210920
CACHIMBO,BR,,-9.334,-54.965,+0537.1,19610101,20210920
ALTA FLORESTA,BR,,-9.866,-56.106,+0288.6,19880601,20210920
PETROLINA,BR,,-9.383,-40.483,+0370.0,19730101,20210920
SENADOR NILO COELHO,BR,,-9.362,-40.569,+0385.0,19430401,20210920
PAULO AFONSO,BR,,-9.401,-38.251,+0269.1,19730501,20210920
AGUA BRANCA,BR,,-9.283,-37.9,+0608.0,19360824,20210920
PAO DE ACUCAR,BR,,-9.75,-37.433,+0020.0,19310104,20210920
PALMEIRO DOS INDIOS,BR,,-9.45,-36.7,+0275.0,19940401,20210920
ZUMBI DOS PALMARES,BR,,-9.511,-35.792,+0118.0,19730101,20210920
PORTO DE PEDRAS,BR,,-9.183,-35.433,+0051.0,20130522,20210920
PALMAS,BR,,-10.183,-48.3,+0281.0,19940401,20210920
PORTO NACIONAL,BR,,-10.717,-48.583,+0239.0,19380205,20210920
GUARULHOS,BR,,-23.432,-46.47,+0749.5,20050101,20210920
IBIPETUBA,BR,,-11.017,-44.517,+0450.0,19891117,20210920
PROPRIA,BR,,-10.2,-36.867,+0019.0,19310104,20210920
ILHA RASA,BR,,-23.067,-43.15,+0075.0,20151014,20210920
BARRA,BR,,-11.083,-43.167,+0402.0,19900425,20210920
MORRO DO CHAPEU,BR,,-11.217,-41.217,+1005.0,19891117,20210920
JACOBINA,BR,,-11.183,-40.467,+0485.0,19891117,20210920
CIPO *                       ,BR,,-11.083,-38.517,+0464.0,19891117,20210920
ITABAIANINHA,BR,,-11.117,-37.817,+0208.0,19900501,20210920
VILHENA,BR,,-12.694,-60.098,+0615.1,19730101,20210920
CRUZ DAS ALMAS,BR,,-12.667,-39.083,+0227.0,20020311,20210920
PEIXE,BR,,-12.05,-48.533,+0250.0,19890901,20210920
SALVADOR,BR,,-13.017,-38.517,+0051.0,19310101,20210920
TAGUATINGA,BR,,-12.4,-46.433,+0604.0,19890901,20210920
BARREIRAS,BR,,-12.15,-45.0,+0439.0,19730102,20210920
LENCOIS,BR,,-12.567,-41.383,+0439.0,19730809,20210920
DEPUTADO LUIS EDUARDO MAGALHA,BR,,-12.911,-38.331,+0019.5,19430809,20210920
CANARANA,BR,,-13.5,-52.5,+0430.0,19891117,20210920
CORRENTINA,BR,,-13.467,-44.767,+0587.0,19900119,20210920
BOM JESUS DA LAPA,BR,,-13.262,-43.408,+0443.2,19730101,20210920
DIAMANTINO,BR,,-14.4,-56.45,+0286.0,19730101,20210920
NOVA XAVANTINA,BR,,-14.7,-52.35,+0315.0,19730101,20210920
POSSE,BR,,-14.1,-46.367,+0826.0,19890901,20210920
VITORIA DA CONQUISTA,BR,,-14.863,-40.863,+0913.8,19740623,20210920
ILHEUS,BR,,-14.816,-39.033,+0004.6,19830401,20210920
BARRA DO GARCAS,BR,,-15.861,-52.389,+0349.6,19861101,20210920
CUIABA,BR,,-15.55,-56.117,+0151.0,19310101,20210920
MARECHAL RONDON,BR,,-15.653,-56.117,+0188.1,19730101,20210920
PADRE RICARDO REMETTER,BR,,-15.783,-56.067,+0141.0,19891117,20210920
ARAGARCAS,BR,,-15.9,-52.233,+0345.0,19730101,20210920
PIRENOPOLIS,BR,,-15.85,-48.967,+0730.0,19360824,20210920
BRASILIA,BR,,-15.783,-47.933,+1159.0,19730101,20210920
PRESIDENTE JUSCELINO KUBITSCH,BR,,-15.863,-47.913,+1060.4,19610101,20210920
FORMOSA,BR,,-15.533,-47.333,+0912.0,19380403,20210920
ARINOS,BR,,-15.9,-46.05,+0519.0,19891117,20210920
JANUARIA,BR,,-15.433,-44.367,+0474.0,19310101,20210920
PEDRA AZUL,BR,,-16.0,-41.283,+0649.0,19740720,20210920
BASE AEREA,BR,,-16.229,-48.964,+1136.3,19770204,20210920
GOIANIA,BR,,-16.667,-49.25,+0741.0,19380510,20210920
SANTA GENOVEVA,BR,,-16.632,-49.221,+0746.8,19730101,20210920
MARIO RIBEIRO,BR,,-16.707,-43.819,+0667.8,19360824,20210920
SALINAS,BR,,-16.183,-42.283,+0472.0,19891117,20210920
ARACUAI,BR,,-16.867,-42.067,+0284.0,19891117,20210920
GUARATINGUETA,BR,,-16.733,-39.55,+0195.0,20020203,20210920
PORTO SEGURO,BR,,-16.439,-39.081,+0051.2,20070717,20210920
JATAI *                      ,BR,,-17.883,-51.717,-0999.9,20010916,20210920
RIO VERDE,BR,,-17.917,-50.917,+0727.0,19740720,20210920
ITAMARANDIBA,BR,,-17.85,-42.85,+1097.0,19891117,20210920
ABROLHOS,BR,,-17.967,-38.7,+0038.0,19790112,20210920
UBERLANDIA AERO,BR,,-18.883,-48.22,+0943.0,20050502,20210920
CATALAO,BR,,-18.183,-47.95,+0840.0,19310101,20210920
SAO MATEUS,BR,,-18.7,-39.85,+0025.0,19360824,20210920
CORUMBA INTL,BR,,-19.012,-57.673,+0140.5,19310101,20210920
PARANAIBA,BR,,-19.7,-51.183,+0331.0,19891117,20210920
UBERABA,BR,,-19.765,-47.965,+0809.2,19730101,20210920
ARAXA,BR,,-19.567,-46.933,+1004.0,19380913,20210920
PAMPULHA CARLOS DRUMMOND DE A,BR,,-19.851,-43.951,+0789.1,19510101,20210920
TANCREDO NEVES INTL,BR,,-19.634,-43.969,+0827.5,19310101,20210920
LAGOA SANTA AIRPORT,BR,,-19.65,-43.883,+0852.0,19730101,20210920
CONCEICAO DO MATO DENTRO,BR,,-19.033,-43.433,+0675.0,19891118,20210920
CARATINGA,BR,,-19.8,-42.15,+0609.0,19360830,20210920
CAMPO GRANDE,BR,,-20.469,-54.673,+0558.7,19360824,20210920
FRANCA,BR,,-20.55,-47.433,+1026.0,19730104,20210920
CAPARAO,BR,,-20.517,-41.867,+0843.0,19900714,20210920
POCOS DE CALDAS,BR,,-21.843,-46.568,+1260.3,20050502,20210920
VITORIA,BR,,-20.317,-40.333,+0036.0,19310101,20210920
GOIABEIRAS,BR,,-20.258,-40.286,+0003.4,19730101,20210920
LEITE LOPES,BR,,-21.134,-47.774,+0549.2,20050306,20210920
SAO SIMAO,BR,,-21.483,-47.55,+0617.0,19880513,20210920
CAMPO FONTENELLE,BR,,-21.985,-47.335,+0599.8,19730101,20210920
CARLOS PRATES,BR,,-19.909,-43.991,+0927.8,20070717,20210920
CASCAVEL,BR,,-25.0,-53.501,+0753.8,20070717,20210920
GUAJARA MIRIM,BR,,-10.786,-65.285,+0145.7,20070717,20210920
MACHADO,BR,,-21.667,-45.917,+0873.0,19891117,20210920
LAVRAS,BR,,-21.233,-45.0,+0919.0,19360824,20210920
MAJOR BRIGADEIRO DOORGAL BORG,BR,,-21.267,-43.761,+1114.7,19730101,20210920
FRANCISCO DE ASSIS,BR,,-21.792,-43.387,+0911.0,19310101,20210920
ITAPERUNA,BR,,-21.2,-41.883,+0123.0,19891110,20210920
BARTOLOMEU LISANDRO,BR,,-21.698,-41.302,+0017.4,19310101,20210920
PONTA PORA,BR,,-22.55,-55.703,+0657.1,19730101,20210920
GUARATINGUETA,BR,,-22.792,-45.205,+0536.8,19770504,20210920
PRESIDENTE PRUDENTE,BR,,-22.175,-51.425,+0450.2,19730101,20210920
CORDEIRO,BR,,-22.033,-42.367,+0485.0,19890209,20210920
VIRACOPOS,BR,,-23.007,-47.135,+0661.4,19510120,20210920
BAURU,BR,,-22.345,-49.054,+0617.2,19730101,20210920
SAO CARLOS,BR,,-22.017,-47.883,+0856.0,19310101,20210920
RESENDE,BR,,-22.483,-44.467,+0440.0,19310101,20210920
GALEAO ANTONIO CARLOS JOBIM,BR,,-22.809,-43.244,+0008.5,19310101,20210920
CAMPO DELIO JARDIM DE MATTOS,BR,,-22.875,-43.385,+0033.5,19510101,20210920
SANTOS DUMONT,BR,,-22.91,-43.163,+0003.4,19380913,20210920
SAO PEDRO DA ALDEIA,BR,,-22.813,-42.093,+0018.6,19730101,20210920
LONDRINA,BR,,-23.383,-51.183,+0566.0,19730101,20210920
REGIONAL DE MARINGA SILVIO NA,BR,,-23.476,-52.016,+0545.0,19891117,20210920
LONDRINA,BR,,-23.334,-51.13,+0569.1,19730101,20210920
CABO FRIO,BR,,-22.922,-42.074,+0004.3,19730101,20210920
MARTE,BR,,-23.509,-46.638,+0721.8,19730101,20210920
CONGONHAS,BR,,-23.627,-46.655,+0801.9,19310101,20210920
SAO PAULO,BR,,-23.5,-46.617,+0792.0,19730101,20210920
TAUBATE,BR,,-23.017,-45.567,+0577.0,19360824,20210920
PROFESSOR URBANO ERNESTO STUM,BR,,-23.229,-45.862,+0646.2,19900207,20210920
CATARATAS INTL,BR,,-25.596,-54.487,+0239.9,19530301,20210920
IRATI,BR,,-25.467,-50.633,+0837.0,19771216,20210920
AFONSO PENA,BR,,-25.528,-49.176,+0910.7,19610101,20210920
BACACHERI,BR,,-25.405,-49.232,+0931.8,19310101,20210920
SOROCABA,BR,,-23.483,-47.433,+0645.0,19891118,20210920
CHAPECO,BR,,-27.117,-52.617,+0679.0,19891117,20210920
HERCILIO LUZ,BR,,-27.67,-48.547,+0006.1,19730101,20210920
SAO LUIZ GONZAGA,BR,,-28.4,-55.017,+0245.0,19310101,20210920
CRUZ ALTA,BR,,-28.633,-53.6,+0464.0,19891117,20210920
LAURO KURTZ,BR,,-28.244,-52.327,+0724.2,19360824,20210920
LAGOA VERMELHA,BR,,-28.417,-51.583,+0806.0,19880917,20210920
BOM JESUS,BR,,-28.667,-50.433,+1048.0,19820701,20210920
SANTA MARTA,BR,,-28.6,-48.817,+0045.0,19400309,20210920
SANTA MARIA,BR,,-29.7,-53.7,+0095.0,19740730,20210920
SANTA MARIA,BR,,-29.711,-53.688,+0087.5,19360829,20210920
CAXIAS DO SUL,BR,,-29.167,-51.2,+0759.0,19891117,20210920
CANOAS,BR,,-29.946,-51.144,+0007.9,19310101,20210920
SALGADO FILHO,BR,,-29.994,-51.171,+0003.4,19730101,20210920
BAGE,BR,,-31.333,-54.1,+0242.0,19360824,20210920
COMANDANTE GUSTAVO KRAEMER,BR,,-31.391,-54.112,+0182.9,19610101,20210920
PELOTAS,BR,,-31.718,-52.328,+0018.0,19730101,20210920
ST.VITORIA DO PALMAR,BR,,-33.517,-53.35,+0024.0,19310101,20210920
CHUI,BR,,-33.75,-53.367,+0013.0,19790112,20210920
PALMAS,BR,,-10.183,-48.3,+0281.5,20160704,20210920
SENHOR DO BONFIM,BR,,-10.45,-40.15,+0549.5,20160721,20210920
QUEIMADAS,BR,,-10.983,-39.617,+0316.5,20160704,20210920
EUCLIDES DA CUNHA,BR,,-10.533,-39.0,+0433.5,20160709,20210920
POCO VERDE,BR,,-10.733,-38.1,+0363.5,20160704,20210920
ARACAJU,BR,,-10.95,-37.05,+0006.2,20160704,20210920
CACOAL,BR,,-11.45,-61.433,+0211.5,20160704,20210920
JUINA,BR,,-11.383,-58.783,+0375.5,20160704,20210920
FORMOSO DO ARAGUAIA,BR,,-11.883,-49.6,+0221.5,20160704,20210920
GURUPI,BR,,-11.75,-49.05,+0288.5,20160704,20210920
DIANOPOLIS,BR,,-11.6,-46.85,+0733.5,20160704,20210920
BARRA,BR,,-11.083,-43.133,+0404.5,20160704,20210920
IRECE,BR,,-11.333,-41.867,+0756.5,20160704,20210920
SERRINHA,BR,,-11.667,-39.017,+0340.5,20160704,20210920
ITABAIANINHA,BR,,-11.267,-37.8,+0209.5,20160704,20210920
VILHENA,BR,,-12.733,-60.15,+0591.5,20160704,20210920
PEIXE,BR,,-12.017,-48.55,+0243.5,20160704,20210920
PARANA,BR,,-12.617,-47.983,+0276.5,20160704,20210920
BARREIRAS,BR,,-12.15,-45.0,+0471.9,20160704,20210920
IBOTIRAMA,BR,,-12.2,-43.217,+0431.5,20160704,20210920
LENCOIS,BR,,-12.567,-41.383,+0440.5,20160704,20210920
MACAJUBA,BR,,-12.117,-40.35,+0381.5,20160704,20210920
ITABERABA,BR,,-12.517,-40.283,+0251.4,20160704,20210920
CORRENTINA,BR,,-13.333,-44.617,+0550.5,20160911,20210920
ITIRUCU,BR,,-13.533,-40.117,+0757.1,20160704,20210920
AMARGOSA,BR,,-13.017,-39.617,+0408.5,20160704,20210920
SALVADOR,BR,,-13.0,-38.5,+0052.9,20160704,20210920
ITAPACI,BR,,-14.983,-49.533,+0523.5,20160704,20210920
ALTO PARAISO DE GOIAS,BR,,-14.133,-47.517,+1261.5,20160704,20210920
POSSE,BR,,-14.083,-46.367,+0835.5,20160704,20210920
MONTALVANIA,BR,,-14.4,-44.4,+0513.5,20160704,20210920
GUANAMBI,BR,,-14.2,-42.75,+0552.5,20160704,20210920
BRUMADO,BR,,-14.183,-41.667,+0471.5,20160704,20210920
ILHEUS,BR,,-14.65,-39.167,+0079.5,20160704,20210920
PORTO ESTRELA,BR,,-15.325,-57.226,+0146.5,20160704,20210920
CUIABA,BR,,-15.617,-56.1,+0152.8,20160704,20210920
CAMPO VERDE,BR,,-15.533,-55.133,+0750.5,20160829,20210920
ARAGARCAS,BR,,-15.9,-52.25,+0348.5,20160704,20210920
GOIAS,BR,,-15.933,-50.133,+0513.5,20160704,20210920
GOIANESIA,BR,,-15.217,-48.983,+0668.5,20160704,20210920
BRASILIA,BR,,-15.783,-47.933,+1161.0,20160704,20210920
AGUAS EMENDADAS,BR,,-15.6,-47.633,+1201.5,20160704,20210920
CHAPADA GAUCHA,BR,,-15.3,-45.617,+0881.5,20160704,20210920
MOCAMBINHO,BR,,-15.083,-44.017,+0461.5,20160704,20210920
RIO PARDO DE MINAS,BR,,-15.717,-42.433,+0854.5,20160704,20210920
AGUAS VERMELHAS,BR,,-15.75,-41.45,+0751.5,20160704,20210920
RONDONOPOLIS,BR,,-16.45,-54.567,+0285.5,20160704,20210920
CAIPONIA,BR,,-16.967,-51.817,+0738.5,20160704,20210920
PARAUNA,BR,,-16.963,-50.425,+0679.5,20160704,20210920
GOIANIA,BR,,-16.65,-49.217,+0771.5,20160704,20210920
SILVANIA,BR,,-16.683,-48.617,+0950.5,20160704,20210920
LUZIANIA,BR,,-16.267,-47.967,+0959.5,20160704,20210920
CRISTALINA,BR,,-16.783,-47.617,+1203.5,20160704,20210920
UNAI,BR,,-16.55,-46.883,+0632.5,20160704,20210920
SAO ROMAO,BR,,-16.367,-45.117,+0461.5,20160704,20210920
MONTES CLAROS,BR,,-16.717,-43.867,+0647.8,20160704,20210920
SALINAS,BR,,-16.167,-42.317,+0496.5,20160704,20210920
ITAOBIM,BR,,-16.583,-41.483,+0267.5,20160704,20210920
ALMENARA,BR,,-16.167,-40.683,+0209.5,20160704,20210920
ALTO TAQUARI,BR,,-17.817,-53.283,+0876.5,20160704,20210920
MINEIROS,BR,,-17.567,-52.6,+0707.5,20160704,20210920
JATAI,BR,,-17.917,-51.717,+0583.5,20160728,20210920
RIO VERDE,BR,,-17.783,-50.967,+0783.5,20160704,20210920
MORRINHOS,BR,,-17.717,-49.1,+0772.9,20160704,20210920
PIRES DO RIO,BR,,-17.3,-48.283,+0753.5,20160704,20210920
JOAO PINHEIRO,BR,,-17.783,-46.117,+0871.5,20160704,20210920
PIRAPORA,BR,,-17.25,-44.833,+0504.5,20160704,20210920
TEOFILO OTONI,BR,,-17.9,-41.517,+0476.5,20160704,20210920
CORUMBA,BR,,-19.0,-57.633,+0127.5,20160704,20210920
COXIM,BR,,-18.517,-54.733,+0253.5,20171111,20210920
SAO SIMAO,BR,,-18.967,-50.633,+0490.0,20160704,20210920
ITUMBIARA,BR,,-18.417,-49.2,+0489.5,20160704,20210920
UBERLANDIA,BR,,-18.917,-48.25,+0870.5,20160704,20210920
CATALAO,BR,,-18.15,-47.933,+0891.5,20160707,20210920
PATROCINIO,BR,,-19.0,-46.983,+0964.5,20160704,20210920
TRES MARIAS,BR,,-18.2,-45.467,+0922.5,20160911,20210920
CURVELO,BR,,-18.75,-44.45,+0671.5,20160704,20210920
DIAMANTINA,BR,,-18.233,-43.65,+1357.5,20160704,20210920
GUANHAES,BR,,-18.783,-42.95,+0861.5,20160704,20210920
GOVERNADOR VALADARES,BR,,-18.783,-41.983,+0264.5,20160704,20210920
MANTENA,BR,,-18.783,-40.983,+0271.5,20160704,20210920
NOVA VENECIA,BR,,-18.7,-40.383,+0155.5,20160704,20210920
SAO MATEUS,BR,,-18.717,-39.85,+0040.5,20160704,20210920
CASSILANDIA,BR,,-19.117,-51.717,+0517.5,20160704,20210920
CAPINA VERDE,BR,,-19.533,-49.533,+0548.5,20160704,20210920
CONCEICAO DAS ALAGOAS,BR,,-19.986,-48.153,+0569.5,20160704,20210920
SACRAMENTO,BR,,-19.883,-47.433,+0913.5,20160704,20210920
ARAXA,BR,,-19.6,-46.933,+1021.5,20160704,20210920
FLORESTAL,BR,,-19.883,-44.417,+0743.5,20160704,20210920
BELO HORIZONTE - PAMPULHA,BR,,-19.883,-43.967,+0870.5,20160704,20210920
TIMOTEO,BR,,-19.583,-42.633,+0334.5,20160704,20210920
CARATINGA,BR,,-19.733,-42.133,+0616.5,20160704,20210920
SANTA TEREZA,BR,,-19.983,-40.583,+0989.5,20160704,20210920
LINHARES,BR,,-19.35,-40.067,+0041.5,20160704,20210920
MIRANDA,BR,,-20.4,-56.433,+0141.5,20160704,20210920
AQUIDAUANA,BR,,-20.483,-55.783,+0156.5,20160704,20210920
SIDROLANDIA,BR,,-20.983,-54.967,+0465.5,20160704,20210920
CAMPO GRANDE,BR,,-20.45,-54.617,+0531.5,20160704,20210920
AGUA CLARA,BR,,-20.417,-52.883,+0339.5,20160704,20210920
TRES LAGOAS,BR,,-20.783,-51.7,+0314.5,20160704,20210920
JALES,BR,,-20.167,-50.6,+0458.5,20160704,20210920
VOTUPORANGA,BR,,-20.417,-49.967,+0487.5,20160704,20210920
ITUVERAVA,BR,,-20.359,-47.775,+0601.5,20160704,20210920
FRANCA,BR,,-20.583,-47.383,+1027.5,20160704,20210920
PASSOS,BR,,-20.75,-46.633,+0785.5,20160704,20210920
FORMIGA,BR,,-20.45,-45.45,+0879.5,20160704,20210920
OURO BRANCO,BR,,-20.55,-43.75,+1062.5,20160704,20210920
VICOSA,BR,,-20.767,-42.867,+0713.7,20160704,20210920
ALFREDO CHAVES,BR,,-20.633,-40.733,+0036.5,20160704,20210920
VITORIA,BR,,-20.317,-40.317,+0010.5,20160704,20210920
PORTO MURTINHO,BR,,-21.7,-57.55,+0086.5,20160704,20210920
RIO BRILHANTE,BR,,-21.783,-54.533,+0330.5,20160704,20210920
VALPARAISO,BR,,-21.317,-50.933,+0375.5,20160704,20210920
ARIRANHA,BR,,-21.133,-48.833,+0526.5,20160704,20210920
PRADOPOLIS,BR,,-21.338,-48.114,+0545.5,20160704,20210920
IBITINGA,BR,,-21.856,-48.8,+0493.5,20160704,20210920
SAO CARLOS,BR,,-21.983,-47.883,+0864.5,20160704,20210920
CALDAS,BR,,-21.917,-46.383,+1151.5,20160704,20210920
VARGINHA,BR,,-21.567,-45.4,+0926.5,20160704,20210920
BARBACENA,BR,,-21.217,-43.767,+1156.5,20160704,20210920
JUIZ DE FORA,BR,,-21.767,-43.367,+0951.5,20160704,20210920
MURIAE,BR,,-21.1,-42.383,+0271.5,20160704,20210920
CAMBUCI,BR,,-21.583,-41.95,+0036.5,20160704,20210920
PONTA PORA,BR,,-22.533,-55.533,+0651.5,20160704,20210920
DOURADOS,BR,,-22.2,-54.917,+0470.5,20160704,20210920
IVINHEMA,BR,,-22.3,-53.817,+0374.8,20160704,20210920
PRESIDENTE PRUDENTE,BR,,-22.117,-51.4,+0437.1,20160704,20210920
RANCHARIA,BR,,-22.367,-50.967,+0351.5,20160704,20210920
BAURU,BR,,-22.317,-49.067,+0551.5,20160704,20210920
BARRA BONITA,BR,,-22.467,-48.55,+0544.5,20160704,20210920
MONTE VERDE,BR,,-22.867,-46.05,+0661.5,20160704,20210920
MARIA DA FE,BR,,-22.317,-45.367,+1277.5,20160704,20210920
CAMPOS DO JORDAO,BR,,-22.75,-45.6,+1581.5,20160704,20210920
PASSA QUATRO,BR,,-22.4,-44.967,+1041.5,20160704,20210920
RESENDE,BR,,-22.451,-44.445,+0453.5,20160704,20210920
ALBACORA P25 OIL PLATFORM    ,BR,,-22.1,-39.917,+0010.1,20130109,20210920
MACAE,BR,,-22.343,-41.766,+0002.4,20050502,20210920
ARRAIAL DO CABO,BR,,-22.976,-42.021,+0005.5,20160704,20210920
ITAQUIRAI,BR,,-23.45,-54.183,+0337.5,20160704,20210920
CIDADE GAUCHA,BR,,-23.359,-52.932,+0382.5,20160704,20210920
MARINGA,BR,,-23.405,-51.933,+0543.5,20160704,20210920
JOAQUIM TAVORA,BR,,-23.505,-49.946,+0523.5,20160704,20210920
AVARE,BR,,-23.1,-48.95,+0726.5,20160704,20210920
ITAPEVA,BR,,-23.983,-48.883,+0708.5,20160704,20210920
SOROCABA,BR,,-23.433,-47.583,+0610.5,20160704,20210920
PARATI,BR,,-23.223,-44.727,+0005.5,20160704,20210920
INACIO MARTINS,BR,,-25.567,-51.083,+1261.5,20160704,20210920
IVAI,BR,,-25.017,-50.85,+0809.5,20160704,20210920
CURITIBA,BR,,-25.449,-49.23,+0925.0,20160704,20210920
MORRETES,BR,,-25.517,-48.817,+0060.5,20160704,20210920
DIONISIO CERQUEIRA,BR,,-26.283,-53.633,+0811.5,20160704,20210920
CLEVELANDIA,BR,,-26.417,-52.35,+0981.5,20160704,20210920
XANXERE,BR,,-26.933,-52.4,+0890.5,20160704,20210920
MAJOR VIEIRA,BR,,-26.4,-50.367,+0809.5,20160704,20210920
CACADOR,BR,,-26.817,-50.833,+0953.5,20160704,20210920
RIO DO CAMPO,BR,,-26.933,-50.15,+0593.5,20160704,20210920
RIO NEGRINHO,BR,,-26.25,-49.583,+0870.5,20160704,20210920
INDAIAL,BR,,-26.917,-49.267,+0088.2,20160704,20210920
SANTA ROSA,BR,,-27.883,-54.483,+0277.5,20160706,20210920
SANTO AUGUSTO,BR,,-27.85,-53.783,+0551.5,20160704,20210920
PALMEIRA DAS MISSOES,BR,,-27.917,-53.317,+0643.5,20160704,20210920
ERECHIM,BR,,-27.667,-52.3,+0766.5,20160708,20210920
JOACABA,BR,,-27.169,-51.559,+0777.5,20160704,20210920
CURITIBANOS,BR,,-27.283,-50.6,+0983.5,20160704,20210920
SAO BORJA,BR,,-28.65,-56.017,+0084.5,20160704,20210920
CRUZ ALTA,BR,,-28.6,-53.667,+0433.5,20160704,20210920
PASSO FUNDO,BR,,-28.229,-52.404,+0685.5,20160704,20210920
SOLEDADE,BR,,-28.854,-52.542,+0668.5,20160704,20210920
LAGOA VERMELHA,BR,,-28.222,-51.512,+0843.5,20160704,20210920
VACARIA,BR,,-28.514,-50.883,+0987.5,20160704,20210920
SAO JOSE DOS AUSENTES,BR,,-28.751,-50.058,+1245.5,20160704,20210920
URUBICI,BR,,-28.126,-49.479,+1811.5,20160704,20210920
SAO JOAQUIM,BR,,-28.283,-49.933,+1411.5,20160704,20210920
URUSSANGA,BR,,-28.533,-49.317,+0049.5,20160704,20210920
ARARANGUA,BR,,-28.933,-49.5,+0013.5,20160704,20210920
URUGUAIANA,BR,,-29.85,-57.083,+0063.8,20160728,20210920
ALEGRETE,BR,,-29.717,-55.533,+0122.5,20160704,20210920
SANTIAGO,BR,,-29.183,-54.883,+0395.5,20160704,20210920
SANTA MARIA,BR,,-29.7,-53.7,+0096.5,20160704,20210920
RIO PARDO,BR,,-29.867,-52.383,+0112.5,20160704,20210920
BENTO GONCALVES,BR,,-29.167,-51.535,+0641.5,20160704,20210920
CANELA,BR,,-29.369,-50.828,+0831.5,20160704,20210920
TORRES,BR,,-29.35,-49.733,+0006.2,20160704,20210920
QUARAI,BR,,-30.369,-56.437,+0125.5,20160704,20210920
SANTANA DO LIVRAMENTO,BR,,-30.833,-55.6,+0329.5,20160805,20210920
SAO GABRIEL,BR,,-30.341,-54.311,+0127.5,20160704,20210920
CACAPAVA DO SUL,BR,,-30.548,-53.468,+0451.5,20160704,20210920
PORTO ALEGRE,BR,,-30.05,-51.167,+0048.5,20160704,20210920
CAMAQUA,BR,,-30.811,-51.835,+0109.5,20160704,20210920
TRAMANDAI,BR,,-30.01,-50.135,+0002.5,20160704,20210920
CANGUCU,BR,,-31.406,-52.701,+0465.5,20160704,20210920
JAGUARAO,BR,,-32.554,-53.376,+0048.5,20160704,20210920
CANIVETE,BR,,0.517,-50.417,+0003.0,20040919,20210920
RIO/JACAREPAGUA,BR,,-22.983,-43.367,+0003.0,19770601,20210920
CARAVELAS,BR,,-17.733,-39.25,+0003.0,19320501,20210920
SANTA CRUZ,BR,,-22.932,-43.719,+0003.0,19730101,20210920
BASE AEREA DE SANTOS,BR,,-23.925,-46.288,+0003.0,19730101,20210920
SAO TOME,BR,,-22.05,-41.05,+0004.0,19790112,20210920
ILHA DO MEL,BR,,-25.483,-48.317,+0004.0,20101228,20210920
RIO GRANDE,BR,,-32.033,-52.1,+0004.0,20160725,20210920
TRINDADE (ILHA)              ,BR,,-20.5,-29.317,+0005.0,19430401,20210920
MOSTARDAS,BR,,-31.25,-50.9,+0005.0,19790112,20210920
JOAO PESSOA,BR,,-7.1,-34.867,+0007.0,19310104,20210920
SANTA MARIA,BR,,-10.984,-37.07,+0007.0,19830401,20210920
BELEM,BR,,-1.45,-48.467,+0010.0,19310104,20210920
BREVES,BR,,-1.667,-50.483,+0015.0,19891201,20210920